[{"OBJECT_NAME":"SUPERVIEW NEO-1 01","OBJECT_ID":"2022-043A","EPOCH":"2026-03-09T22:37:01.879104","MEAN_MOTION":15.15546982,"ECCENTRICITY":3.46e-5,"INCLINATION":97.3476,"RA_OF_ASC_NODE":144.9365,"ARG_OF_PERICENTER":232.358,"MEAN_ANOMALY":127.7621,"EPHEMERIS_TYPE":0,"CLASSIFICATION_TYPE":"U","NORAD_CAT_ID":52320,"ELEMENT_SET_NO":999,"REV_AT_EPOCH":21452,"BSTAR":0.00038664053,"MEAN_MOTION_DOT":7.269e-5,"MEAN_MOTION_DDOT":0},{"OBJECT_NAME":"STARLINK-30365","OBJECT_ID":"2023-131C","EPOCH":"2026-03-09T22:00:01.999584","MEAN_MOTION":15.11740629,"ECCENTRICITY":0.00010893,"INCLINATION":42.9996,"RA_OF_ASC_NODE":170.4181,"ARG_OF_PERICENTER":243.5279,"MEAN_ANOMALY":327.2322,"EPHEMERIS_TYPE":0,"CLASSIFICATION_TYPE":"U","NORAD_CAT_ID":57734,"ELEMENT_SET_NO":999,"REV_AT_EPOCH":543,"BSTAR":0.080452759,"MEAN_MOTION_DOT":0.01512441,"MEAN_MOTION_DDOT":0}]
